CTC1_L_00147016-03
1 82680U 24041PZ  26070.40832176  .00000000  00000+0  00000-0 0  9990
2 82680  50.0000 180.0000 0000000   0.0000   0.0000 14.06899812    19
CTC1_L_00147016-04
1 82681U 25584AA  26070.40832176  .00000000  00000+0  00000-0 0  9994
2 82681  50.0000 180.0000 0000000   0.0000  90.0000 14.06899812    19
CTC1_L_00147017-01
1 82682U 26935BR  26070.40832176  .00000000  00000+0  00000-0 0  9996
2 82682  50.0000 192.0000 0000000   0.0000 192.0000 14.06899812    16
CTC1_L_00147017-02
1 82683U 24635HY  26070.40832176  .00000000  00000+0  00000-0 0  9992
2 82683  50.0000 192.0000 0000000   0.0000 282.0000 14.06899812    17
CTC1_L_00147017-03
1 82684U 25117KD  26070.40832176  .00000000  00000+0  00000-0 0  9999
2 82684  50.0000 192.0000 0000000   0.0000  12.0000 14.06899812    19
CTC1_L_00147017-04
1 82685U 22697OO  26070.40832176  .00000000  00000+0  00000-0 0  9990
2 82685  50.0000 192.0000 0000000   0.0000 102.0000 14.06899812    10
CTC1_L_00147018-01
1 82686U 23741ZM  26070.40832176  .00000000  00000+0  00000-0 0  9992
2 82686  50.0000 204.0000 0000000   0.0000 204.0000 14.06899812    18
CTC1_L_00147018-02
1 82687U 22009RH  26070.40832176  .00000000  00000+0  00000-0 0  9999
2 82687  50.0000 204.0000 0000000   0.0000 294.0000 14.06899812    18
CTC1_L_00147018-03
1 82688U 25222JH  26070.40832176  .00000000  00000+0  00000-0 0  9990
2 82688  50.0000 204.0000 0000000   0.0000  24.0000 14.06899812    10
CTC1_L_00147018-04
1 82689U 22208AF  26070.40832176  .00000000  00000+0  00000-0 0  9992
2 82689  50.0000 204.0000 0000000   0.0000 114.0000 14.06899812    11
CTC1_L_00147019-01
1 82690U 26214MD  26070.40832176  .00000000  00000+0  00000-0 0  9995
2 82690  50.0000 216.0000 0000000   0.0000 216.0000 14.06899812    19
CTC1_L_00147019-02
1 82691U 25027KL  26070.40832176  .00000000  00000+0  00000-0 0  9997
2 82691  50.0000 216.0000 0000000   0.0000 306.0000 14.06899812    10
CTC1_L_00147019-03
1 82692U 25241ZN  26070.40832176  .00000000  00000+0  00000-0 0  9996
2 82692  50.0000 216.0000 0000000   0.0000  36.0000 14.06899812    11
CTC1_L_00147019-04
1 82693U 25812GJ  26070.40832176  .00000000  00000+0  00000-0 0  9991
2 82693  50.0000 216.0000 0000000   0.0000 126.0000 14.06899812    12
CTC1_L_00147020-01
1 82694U 23327IB  26070.40832176  .00000000  00000+0  00000-0 0  9991
2 82694  50.0000 228.0000 0000000   0.0000 228.0000 14.06899812    19
CTC1_L_00147020-02
1 82695U 24186FY  26070.40832176  .00000000  00000+0  00000-0 0  9996
2 82695  50.0000 228.0000 0000000   0.0000 318.0000 14.06899812    10
CTC1_L_00147020-03
1 82696U 24709MB  26070.40832176  .00000000  00000+0  00000-0 0  9998
2 82696  50.0000 228.0000 0000000   0.0000  48.0000 14.06899812    11
CTC1_L_00147020-04
1 82697U 26365BQ  26070.40832176  .00000000  00000+0  00000-0 0  9999
2 82697  50.0000 228.0000 0000000   0.0000 138.0000 14.06899812    12
CTC1_L_00147021-01
1 82698U 25648OM  26070.40832176  .00000000  00000+0  00000-0 0  9993
2 82698  50.0000 240.0000 0000000   0.0000 240.0000 14.06899812    11
CTC1_L_00147021-02
1 82699U 24273JW  26070.40832176  .00000000  00000+0  00000-0 0  9997
2 82699  50.0000 240.0000 0000000   0.0000 330.0000 14.06899812    12
CTC1_L_00147021-03
1 82700U 25489BG  26070.40832176  .00000000  00000+0  00000-0 0  9990
2 82700  50.0000 240.0000 0000000   0.0000  60.0000 14.06899812    15
CTC1_L_00147021-04
1 82701U 23783VF  26070.40832176  .00000000  00000+0  00000-0 0  9996
2 82701  50.0000 240.0000 0000000   0.0000 150.0000 14.06899812    16
CTC1_L_00147022-01
1 82702U 23523KH  26070.40832176  .00000000  00000+0  00000-0 0  9999
2 82702  50.0000 252.0000 0000000   0.0000 252.0000 14.06899812    13
CTC1_L_00147022-02
1 82703U 26505WD  26070.40832176  .00000000  00000+0  00000-0 0  9993
2 82703  50.0000 252.0000 0000000   0.0000 342.0000 14.06899812    14
CTC1_L_00147022-03
1 82704U 25168SY  26070.40832176  .00000000  00000+0  00000-0 0  9998
2 82704  50.0000 252.0000 0000000   0.0000  72.0000 14.06899812    15
CTC1_L_00147022-04
1 82705U 23948KZ  26070.40832176  .00000000  00000+0  00000-0 0  9993
2 82705  50.0000 252.0000 0000000   0.0000 162.0000 14.06899812    16
CTC1_L_00147023-01
1 82706U 23496OZ  26070.40832176  .00000000  00000+0  00000-0 0  9992
2 82706  50.0000 264.0000 0000000   0.0000 264.0000 14.06899812    13
CTC1_L_00147023-02
1 82707U 23841FI  26070.40832176  .00000000  00000+0  00000-0 0  9997
2 82707  50.0000 264.0000 0000000   0.0000 354.0000 14.06899812    14
CTC1_L_00147023-03
1 82708U 23274QD  26070.40832176  .00000000  00000+0  00000-0 0  9998
2 82708  50.0000 264.0000 0000000   0.0000  84.0000 14.06899812    15
CTC1_L_00147023-04
1 82709U 22035BM  26070.40832176  .00000000  00000+0  00000-0 0  9993
2 82709  50.0000 264.0000 0000000   0.0000 174.0000 14.06899812    16
CTC1_L_00147024-01
1 82710U 25422EF  26070.40832176  .00000000  00000+0  00000-0 0  9998
2 82710  50.0000 276.0000 0000000   0.0000 276.0000 14.06899812    14
CTC1_L_00147024-02
1 82711U 25208XM  26070.40832176  .00000000  00000+0  00000-0 0  9991
2 82711  50.0000 276.0000 0000000   0.0000   6.0000 14.06899812    16
CTC1_L_00147024-03
1 82712U 22533UC  26070.40832176  .00000000  00000+0  00000-0 0  9990
2 82712  50.0000 276.0000 0000000   0.0000  96.0000 14.06899812    16
CTC1_L_00147024-04
1 82713U 23326DU  26070.40832176  .00000000  00000+0  00000-0 0  9992
2 82713  50.0000 276.0000 0000000   0.0000 186.0000 14.06899812    17
CTC1_L_00147025-01
1 82714U 25970TZ  26070.40832176  .00000000  00000+0  00000-0 0  9990
2 82714  50.0000 288.0000 0000000   0.0000 288.0000 14.06899812    14
CTC1_L_00147025-02
1 82715U 25059YA  26070.40832176  .00000000  00000+0  00000-0 0  9999
2 82715  50.0000 288.0000 0000000   0.0000  18.0000 14.06899812    16
CTC1_L_00147025-03
1 82716U 23348MX  26070.40832176  .00000000  00000+0  00000-0 0  9999
2 82716  50.0000 288.0000 0000000   0.0000 108.0000 14.06899812    17
CTC1_L_00147025-04
1 82717U 24957CB  26070.40832176  .00000000  00000+0  00000-0 0  9997
2 82717  50.0000 288.0000 0000000   0.0000 198.0000 14.06899812    17
CTC1_L_00147026-01
1 82718U 23431UY  26070.40832176  .00000000  00000+0  00000-0 0  9994
2 82718  50.0000 300.0000 0000000   0.0000 300.0000 14.06899812    18
CTC1_L_00147026-02
1 82719U 24870DZ  26070.40832176  .00000000  00000+0  00000-0 0  9993
2 82719  50.0000 300.0000 0000000   0.0000  30.0000 14.06899812    19
CTC1_L_00147026-03
1 82720U 24707RF  26070.40832176  .00000000  00000+0  00000-0 0  9994
2 82720  50.0000 300.0000 0000000   0.0000 120.0000 14.06899812    11
CTC1_L_00147026-04
1 82721U 22605GB  26070.40832176  .00000000  00000+0  00000-0 0  9990
2 82721  50.0000 300.0000 0000000   0.0000 210.0000 14.06899812    12
CTC1_L_00147027-01
1 82722U 24814PH  26070.40832176  .00000000  00000+0  00000-0 0  9995
2 82722  50.0000 312.0000 0000000   0.0000 312.0000 14.06899812    19
CTC1_L_00147027-02
1 82723U 22853FH  26070.40832176  .00000000  00000+0  00000-0 0  9997
2 82723  50.0000 312.0000 0000000   0.0000  42.0000 14.06899812    10
CTC1_L_00147027-03
1 82724U 22329JP  26070.40832176  .00000000  00000+0  00000-0 0  9996
2 82724  50.0000 312.0000 0000000   0.0000 132.0000 14.06899812    11
CTC1_L_00147027-04
1 82725U 24204MN  26070.40832176  .00000000  00000+0  00000-0 0  9991
2 82725  50.0000 312.0000 0000000   0.0000 222.0000 14.06899812    12
CTC1_L_00147028-01
1 82726U 23482NG  26070.40832176  .00000000  00000+0  00000-0 0  9999
2 82726  50.0000 324.0000 0000000   0.0000 324.0000 14.06899812    19
CTC1_L_00147028-02
1 82727U 24959MY  26070.40832176  .00000000  00000+0  00000-0 0  9990
2 82727  50.0000 324.0000 0000000   0.0000  54.0000 14.06899812    10
CTC1_L_00147028-03
1 82728U 22534AI  26070.40832176  .00000000  00000+0  00000-0 0  9998
2 82728  50.0000 324.0000 0000000   0.0000 144.0000 14.06899812    11
CTC1_L_00147028-04
1 82729U 25160AD  26070.40832176  .00000000  00000+0  00000-0 0  9997
2 82729  50.0000 324.0000 0000000   0.0000 234.0000 14.06899812    12
CTC1_L_00147029-01
1 82730U 26597XB  26070.40832176  .00000000  00000+0  00000-0 0  9994
2 82730  50.0000 336.0000 0000000   0.0000 336.0000 14.06899812    10
CTC1_L_00147029-02
1 82731U 26271ZU  26070.40832176  .00000000  00000+0  00000-0 0  9994
2 82731  50.0000 336.0000 0000000   0.0000  66.0000 14.06899812    11
CTC1_L_00147029-03
1 82732U 22491GI  26070.40832176  .00000000  00000+0  00000-0 0  9995
2 82732  50.0000 336.0000 0000000   0.0000 156.0000 14.06899812    12
CTC1_L_00147029-04
1 82733U 22679AG  26070.40832176  .00000000  00000+0  00000-0 0  9994
2 82733  50.0000 336.0000 0000000   0.0000 246.0000 14.06899812    13
CTC1_L_00147030-01
1 82734U 24627SS  26070.40832176  .00000000  00000+0  00000-0 0  9990
2 82734  50.0000 348.0000 0000000   0.0000 348.0000 14.06899812    10
CTC1_L_00147030-02
1 82735U 24682CM  26070.40832176  .00000000  00000+0  00000-0 0  9992
2 82735  50.0000 348.0000 0000000   0.0000  78.0000 14.06899812    11
CTC1_L_00147030-03
1 82736U 25202ND  26070.40832176  .00000000  00000+0  00000-0 0  9992
2 82736  50.0000 348.0000 0000000   0.0000 168.0000 14.06899812    12
CTC1_L_00147030-04
1 82737U 25299WU  26070.40832176  .00000000  00000+0  00000-0 0  9999
2 82737  50.0000 348.0000 0000000   0.0000 258.0000 14.06899812    13
